start=new Date('2023-03-23T00:00:00.000Z').valueOf();
sats=[{"MEAN_MOTION_DOT":"0.00000138","APOAPSIS":"563.340","CENTER_NAME":"EARTH","TIME_SYSTEM":"UTC","RA_OF_ASC_NODE":"143.1927","INCLINATION":"97.6544","MEAN_ANOMALY":"164.9609","REF_FRAME":"TEME","MEAN_MOTION":"15.01257614","CLASSIFICATION_TYPE":"U","ELEMENT_SET_NO":"999","FILE":"3866953","PERIAPSIS":"562.699","SITE":"AFWTR","SEMIMAJOR_AXIS":"6941.154","NORAD_CAT_ID":"53234","EPHEMERIS_TYPE":"0","COUNTRY_CODE":"US","BSTAR":"0.00001531800000","OBJECT_TYPE":"PAYLOAD","TLE_LINE2":"2 53234  97.6544 143.1927 0000462 195.1601 164.9609 15.01257614 37722","OBJECT_ID":"2022-084AX","LAUNCH_DATE":"2022-07-22","OBJECT_NAME":"STARLINK-4368","REV_AT_EPOCH":"3772","RCS_SIZE":"LARGE","ARG_OF_PERICENTER":"195.1601","GP_ID":"228621146","TLE_LINE1":"1 53234U 22084AX  23080.88043575  .00000138  00000-0  15318-4 0  9990","MEAN_MOTION_DDOT":"0.0000000000000","DECAY_DATE":null,"EPOCH":"2023-03-21T21:07:49.648800","ECCENTRICITY":"0.00004620","PERIOD":"95.920","MEAN_ELEMENT_THEORY":"SGP4"},{"PERIAPSIS":"538.875","FILE":"3867197","ELEMENT_SET_NO":"999","MEAN_MOTION":"15.08839884","REF_FRAME":"TEME","CLASSIFICATION_TYPE":"U","MEAN_ANOMALY":"262.3280","INCLINATION":"53.2185","RA_OF_ASC_NODE":"23.0201","TIME_SYSTEM":"UTC","CENTER_NAME":"EARTH","MEAN_MOTION_DOT":"0.00001580","APOAPSIS":"540.616","MEAN_ELEMENT_THEORY":"SGP4","PERIOD":"95.438","ECCENTRICITY":"0.00012580","EPOCH":"2023-03-22T05:09:18.336384","DECAY_DATE":null,"MEAN_MOTION_DDOT":"0.0000000000000","GP_ID":"228629306","TLE_LINE1":"1 53242U 22086A   23081.21479556  .00001580  00000-0  11735-3 0  9991","REV_AT_EPOCH":"3724","RCS_SIZE":"LARGE","ARG_OF_PERICENTER":"97.7855","OBJECT_NAME":"STARLINK-4056","TLE_LINE2":"2 53242  53.2185  23.0201 0001258  97.7855 262.3280 15.08839884 37240","LAUNCH_DATE":"2022-07-24","OBJECT_ID":"2022-086A","COUNTRY_CODE":"US","BSTAR":"0.00011735000000","OBJECT_TYPE":"PAYLOAD","SITE":"AFETR","NORAD_CAT_ID":"53242","SEMIMAJOR_AXIS":"6917.881","EPHEMERIS_TYPE":"0"},{"CENTER_NAME":"EARTH","APOAPSIS":"540.587","MEAN_MOTION_DOT":"0.00002384","RA_OF_ASC_NODE":"28.3217","INCLINATION":"53.2199","TIME_SYSTEM":"UTC","ELEMENT_SET_NO":"999","MEAN_ANOMALY":"261.9409","CLASSIFICATION_TYPE":"U","REF_FRAME":"TEME","MEAN_MOTION":"15.08844699","PERIAPSIS":"538.875","FILE":"3867191","EPHEMERIS_TYPE":"0","NORAD_CAT_ID":"53243","SITE":"AFETR","SEMIMAJOR_AXIS":"6917.866","OBJECT_TYPE":"PAYLOAD","BSTAR":"0.00016781000000","COUNTRY_CODE":"US","OBJECT_NAME":"STARLINK-4047","LAUNCH_DATE":"2022-07-24","OBJECT_ID":"2022-086B","TLE_LINE2":"2 53243  53.2199  28.3217 0001237  98.1724 261.9409 15.08844699 37167","MEAN_MOTION_DDOT":"0.0000000000000","DECAY_DATE":null,"EPOCH":"2023-03-22T03:35:54.383136","RCS_SIZE":"LARGE","ARG_OF_PERICENTER":"98.1724","REV_AT_EPOCH":"3716","TLE_LINE1":"1 53243U 22086B   23081.14993499  .00002384  00000-0  16781-3 0  9990","GP_ID":"228629322","PERIOD":"95.437","MEAN_ELEMENT_THEORY":"SGP4","ECCENTRICITY":"0.00012370"},{"BSTAR":"0.00189320000000","COUNTRY_CODE":"US","OBJECT_TYPE":"PAYLOAD","NORAD_CAT_ID":"53244","SITE":"AFETR","SEMIMAJOR_AXIS":"6917.853","EPHEMERIS_TYPE":"0","TLE_LINE2":"2 53244  53.2194  28.0707 0001109  83.6696 276.4422 15.08849019 37177","LAUNCH_DATE":"2022-07-24","OBJECT_ID":"2022-086C","OBJECT_NAME":"STARLINK-4125","GP_ID":"228629319","TLE_LINE1":"1 53244U 22086C   23081.20513821  .00029978  00000-0  18932-2 0  9992","REV_AT_EPOCH":"3717","ARG_OF_PERICENTER":"83.6696","RCS_SIZE":"LARGE","EPOCH":"2023-03-22T04:55:23.941344","MEAN_MOTION_DDOT":"0.0000000000000","DECAY_DATE":null,"ECCENTRICITY":"0.00011090","MEAN_ELEMENT_THEORY":"SGP4","PERIOD":"95.437","MEAN_MOTION_DOT":"0.00029978","APOAPSIS":"540.485","CENTER_NAME":"EARTH","TIME_SYSTEM":"UTC","INCLINATION":"53.2194","RA_OF_ASC_NODE":"28.0707","MEAN_MOTION":"15.08849019","REF_FRAME":"TEME","CLASSIFICATION_TYPE":"U","MEAN_ANOMALY":"276.4422","ELEMENT_SET_NO":"999","FILE":"3867191","PERIAPSIS":"538.951"},{"CENTER_NAME":"EARTH","MEAN_MOTION_DOT":"0.00005280","APOAPSIS":"540.611","RA_OF_ASC_NODE":"28.0411","INCLINATION":"53.2188","TIME_SYSTEM":"UTC","ELEMENT_SET_NO":"999","MEAN_ANOMALY":"259.8584","REF_FRAME":"TEME","MEAN_MOTION":"15.08837249","CLASSIFICATION_TYPE":"U","PERIAPSIS":"538.897","FILE":"3867191","SEMIMAJOR_AXIS":"6917.889","SITE":"AFETR","NORAD_CAT_ID":"53245","EPHEMERIS_TYPE":"0","COUNTRY_CODE":"US","BSTAR":"0.00034960000000","OBJECT_TYPE":"PAYLOAD","OBJECT_NAME":"STARLINK-4124","TLE_LINE2":"2 53245  53.2188  28.0411 0001239 100.2548 259.8584 15.08837249 37175","OBJECT_ID":"2022-086D","LAUNCH_DATE":"2022-07-24","MEAN_MOTION_DDOT":"0.0000000000000","DECAY_DATE":null,"EPOCH":"2023-03-22T05:06:00.025056","REV_AT_EPOCH":"3717","ARG_OF_PERICENTER":"100.2548","RCS_SIZE":"LARGE","TLE_LINE1":"1 53245U 22086D   23081.21250029  .00005280  00000-0  34960-3 0  9992","GP_ID":"228629316","PERIOD":"95.438","MEAN_ELEMENT_THEORY":"SGP4","ECCENTRICITY":"0.00012390"},{"MEAN_ELEMENT_THEORY":"SGP4","PERIOD":"95.437","ECCENTRICITY":"0.00012450","EPOCH":"2023-03-22T06:36:04.890240","DECAY_DATE":null,"MEAN_MOTION_DDOT":"0.0000000000000","GP_ID":"228642473","TLE_LINE1":"1 53246U 22086E   23081.27505660  .00022934  00000-0  14538-2 0  9996","REV_AT_EPOCH":"3718","ARG_OF_PERICENTER":"86.0684","RCS_SIZE":"LARGE","OBJECT_NAME":"STARLINK-4131","TLE_LINE2":"2 53246  53.2192  27.7564 0001245  86.0684 274.0450 15.08853857 37180","LAUNCH_DATE":"2022-07-24","OBJECT_ID":"2022-086E","BSTAR":"0.00145380000000","COUNTRY_CODE":"US","OBJECT_TYPE":"PAYLOAD","SEMIMAJOR_AXIS":"6917.838","SITE":"AFETR","NORAD_CAT_ID":"53246","EPHEMERIS_TYPE":"0","PERIAPSIS":"538.842","FILE":"3867829","ELEMENT_SET_NO":"999","REF_FRAME":"TEME","MEAN_MOTION":"15.08853857","CLASSIFICATION_TYPE":"U","MEAN_ANOMALY":"274.0450","INCLINATION":"53.2192","RA_OF_ASC_NODE":"27.7564","TIME_SYSTEM":"UTC","CENTER_NAME":"EARTH","MEAN_MOTION_DOT":"0.00022934","APOAPSIS":"540.564"},{"OBJECT_NAME":"STARLINK-4061","OBJECT_ID":"2022-086F","LAUNCH_DATE":"2022-07-24","TLE_LINE2":"2 53247  53.2174  23.0396 0001334 111.7745 248.3389 15.08841195 37240","OBJECT_TYPE":"PAYLOAD","COUNTRY_CODE":"US","BSTAR":"0.00127780000000","EPHEMERIS_TYPE":"0","SITE":"AFETR","SEMIMAJOR_AXIS":"6917.877","NORAD_CAT_ID":"53247","MEAN_ELEMENT_THEORY":"SGP4","PERIOD":"95.437","ECCENTRICITY":"0.00013340","EPOCH":"2023-03-22T05:05:23.693856","DECAY_DATE":null,"MEAN_MOTION_DDOT":"0.0000000000000","TLE_LINE1":"1 53247U 22086F   23081.21207979  .00020107  00000-0  12778-2 0  9997","GP_ID":"228629154","ARG_OF_PERICENTER":"111.7745","RCS_SIZE":"LARGE","REV_AT_EPOCH":"3724","INCLINATION":"53.2174","RA_OF_ASC_NODE":"23.0396","TIME_SYSTEM":"UTC","CENTER_NAME":"EARTH","APOAPSIS":"540.665","MEAN_MOTION_DOT":"0.00020107","PERIAPSIS":"538.819","FILE":"3867191","ELEMENT_SET_NO":"999","CLASSIFICATION_TYPE":"U","MEAN_MOTION":"15.08841195","REF_FRAME":"TEME","MEAN_ANOMALY":"248.3389"},{"PERIAPSIS":"538.660","FILE":"3867192","ELEMENT_SET_NO":"999","CLASSIFICATION_TYPE":"U","MEAN_MOTION":"15.08854531","REF_FRAME":"TEME","MEAN_ANOMALY":"266.5253","INCLINATION":"53.2180","RA_OF_ASC_NODE":"23.0565","TIME_SYSTEM":"UTC","CENTER_NAME":"EARTH","APOAPSIS":"540.742","MEAN_MOTION_DOT":"0.00015300","MEAN_ELEMENT_THEORY":"SGP4","PERIOD":"95.437","ECCENTRICITY":"0.00015050","EPOCH":"2023-03-22T05:00:05.001408","DECAY_DATE":null,"MEAN_MOTION_DDOT":"0.0000000000000","TLE_LINE1":"1 53248U 22086G   23081.20839122  .00015300  00000-0  97690-3 0  9994","GP_ID":"228629340","RCS_SIZE":"LARGE","ARG_OF_PERICENTER":"93.5911","REV_AT_EPOCH":"3724","OBJECT_NAME":"STARLINK-4135","LAUNCH_DATE":"2022-07-24","OBJECT_ID":"2022-086G","TLE_LINE2":"2 53248  53.2180  23.0565 0001505  93.5911 266.5253 15.08854531 37248","OBJECT_TYPE":"PAYLOAD","BSTAR":"0.00097690000000","COUNTRY_CODE":"US","EPHEMERIS_TYPE":"0","SEMIMAJOR_AXIS":"6917.836","SITE":"AFETR","NORAD_CAT_ID":"53248"},{"SITE":"AFETR","NORAD_CAT_ID":"53249","SEMIMAJOR_AXIS":"6917.855","EPHEMERIS_TYPE":"0","COUNTRY_CODE":"US","BSTAR":"0.00139860000000","OBJECT_TYPE":"PAYLOAD","OBJECT_NAME":"STARLINK-4128","TLE_LINE2":"2 53249  53.2159  17.9998 0001278  83.4163 276.6975 15.08848363 37318","OBJECT_ID":"2022-086H","LAUNCH_DATE":"2022-07-24","DECAY_DATE":null,"MEAN_MOTION_DDOT":"0.0000000000000","EPOCH":"2023-03-22T05:17:55.363488","REV_AT_EPOCH":"3731","RCS_SIZE":"LARGE","ARG_OF_PERICENTER":"83.4163","GP_ID":"228642474","TLE_LINE1":"1 53249U 22086H   23081.22077967  .00022046  00000-0  13986-2 0  9998","PERIOD":"95.437","MEAN_ELEMENT_THEORY":"SGP4","ECCENTRICITY":"0.00012780","CENTER_NAME":"EARTH","MEAN_MOTION_DOT":"0.00022046","APOAPSIS":"540.604","RA_OF_ASC_NODE":"17.9998","INCLINATION":"53.2159","TIME_SYSTEM":"UTC","ELEMENT_SET_NO":"999","MEAN_ANOMALY":"276.6975","MEAN_MOTION":"15.08848363","REF_FRAME":"TEME","CLASSIFICATION_TYPE":"U","PERIAPSIS":"538.836","FILE":"3867829"},{"MEAN_ANOMALY":"251.5787","CLASSIFICATION_TYPE":"U","MEAN_MOTION":"15.08847526","REF_FRAME":"TEME","ELEMENT_SET_NO":"999","FILE":"3867830","PERIAPSIS":"538.972","APOAPSIS":"540.473","MEAN_MOTION_DOT":"0.00007269","CENTER_NAME":"EARTH","TIME_SYSTEM":"UTC","RA_OF_ASC_NODE":"17.9829","INCLINATION":"53.2175","RCS_SIZE":"LARGE","ARG_OF_PERICENTER":"108.5323","REV_AT_EPOCH":"3731","TLE_LINE1":"1 53250U 22086J   23081.22445481  .00007269  00000-0  47422-3 0  9993","GP_ID":"228642110","DECAY_DATE":null,"MEAN_MOTION_DDOT":"0.0000000000000","EPOCH":"2023-03-22T05:23:12.895584","ECCENTRICITY":"0.00010850","PERIOD":"95.437","MEAN_ELEMENT_THEORY":"SGP4","EPHEMERIS_TYPE":"0","SITE":"AFETR","SEMIMAJOR_AXIS":"6917.857","NORAD_CAT_ID":"53250","OBJECT_TYPE":"PAYLOAD","COUNTRY_CODE":"US","BSTAR":"0.00047422000000","LAUNCH_DATE":"2022-07-24","OBJECT_ID":"2022-086J","TLE_LINE2":"2 53250  53.2175  17.9829 0001085 108.5323 251.5787 15.08847526 37317","OBJECT_NAME":"STARLINK-4059"}];
